{"type":"FeatureCollection","features":[{"type":"Feature","properties":{"k":"road","c":1,"name":"QL4D"},"geometry":{"type":"LineString","coordinates":[[103.840767,22.334456],[103.840607,22.33399],[103.840959,22.33374],[103.840181,22.332976],[103.839597,22.332616],[103.839088,22.332505],[103.838659,22.332661],[103.838349,22.332884],[103.837438,22.332867],[103.837403,22.332797],[103.83747,22.332636],[103.838424,22.332494],[103.839152,22.332075],[103.842544,22.33153],[103.843097,22.331419],[103.843501,22.331221],[103.844153,22.330825],[103.844491,22.330545],[103.845748,22.327955],[103.846102,22.327472],[103.846271,22.327403],[103.846687,22.327477],[103.846365,22.327653],[103.846244,22.32779],[103.84611,22.328313],[103.845893,22.328623],[103.845597,22.329263],[103.845597,22.329398],[103.845825,22.329835],[103.845805,22.330071],[103.844426,22.331533],[103.843413,22.332847],[103.843165,22.333048],[103.842736,22.333129],[103.842135,22.334077],[103.841016,22.335042],[103.841136,22.335465],[103.841319,22.335795],[103.840521,22.336066],[103.840002,22.336158],[103.839934,22.336113],[103.839845,22.335566],[103.839748,22.33537],[103.839212,22.335246],[103.838739,22.334779],[103.838496,22.334716],[103.837934,22.334831],[103.83731,22.33528],[103.836917,22.335445],[103.836857,22.335557],[103.836893,22.335666],[103.837354,22.336141],[103.837817,22.336332],[103.837921,22.336451],[103.837916,22.33662],[103.837703,22.337069],[103.836553,22.33758],[103.836277,22.33782],[103.836229,22.33795],[103.836273,22.338123],[103.837144,22.338632],[103.836672,22.339653],[103.836062,22.340068],[103.835694,22.34019],[103.835194,22.340176],[103.834028,22.340284],[103.833727,22.340527],[103.833595,22.340995],[103.833392,22.341275],[103.832781,22.341271],[103.832348,22.341382],[103.832064,22.341672],[103.831666,22.342924],[103.831052,22.343551],[103.830864,22.343656],[103.830402,22.343772],[103.829631,22.343544],[103.8289,22.343533],[103.827828,22.343065],[103.827535,22.343061],[103.827154,22.343427],[103.826975,22.343705],[103.826889,22.344018],[103.826815,22.344965],[103.826612,22.345276],[103.825957,22.345604],[103.825177,22.345325],[103.82499,22.345298],[103.824669,22.345382],[103.824292,22.345608],[103.823108,22.346868],[103.822866,22.34702],[103.822657,22.34703],[103.822523,22.346915],[103.822494,22.34617],[103.822329,22.345926],[103.821463,22.345689],[103.820757,22.346098],[103.820612,22.346316],[103.820246,22.347446],[103.820338,22.348262],[103.82026,22.348719],[103.819595,22.349819],[103.819395,22.349912],[103.818719,22.350015],[103.818518,22.350163],[103.818459,22.350366],[103.818481,22.351232],[103.818432,22.351365],[103.817699,22.351698],[103.817449,22.351722],[103.816758,22.351243],[103.8163,22.35117],[103.815946,22.351363],[103.815572,22.352012],[103.815453,22.35211],[103.815231,22.352161],[103.814747,22.351962],[103.814475,22.351949],[103.814283,22.35199],[103.814035,22.352147],[103.81347,22.35275],[103.813291,22.353055],[103.813267,22.354042],[103.813138,22.354839],[103.812627,22.355433],[103.811893,22.355923],[103.811235,22.356519],[103.810034,22.357344],[103.809313,22.358104],[103.809187,22.358267],[103.809061,22.358618],[103.808667,22.360362],[103.808389,22.360857],[103.807881,22.361466],[103.807192,22.361929],[103.807036,22.362109],[103.806853,22.362891],[103.805995,22.363997],[103.805772,22.364136],[103.804638,22.364431],[103.80408,22.364892],[103.803804,22.365612],[103.802637,22.366971],[103.802564,22.36773],[103.802172,22.36854],[103.80191,22.368707],[103.80173,22.36871],[103.800856,22.368268],[103.800502,22.368211],[103.800346,22.368303],[103.7997,22.36901],[103.799314,22.369739],[103.799182,22.369851],[103.798997,22.369885],[103.79825,22.369809],[103.797913,22.369943],[103.797426,22.370249],[103.797079,22.370178],[103.796824,22.369488],[103.796725,22.369374],[103.796446,22.36929],[103.796125,22.36935],[103.795781,22.369593],[103.795663,22.369761],[103.795511,22.370787],[103.794622,22.371838],[103.794168,22.37213],[103.793984,22.372119],[103.793793,22.371946],[103.793818,22.371344],[103.793579,22.370648],[103.792794,22.370146],[103.792686,22.369966],[103.79265,22.369245],[103.793171,22.36762],[103.793228,22.366879],[103.793117,22.366387],[103.792498,22.364572],[103.79234,22.363681],[103.791931,22.362912],[103.79119,22.362729],[103.791053,22.362645],[103.790796,22.362242],[103.790617,22.36152],[103.790426,22.361291],[103.790224,22.361219],[103.789915,22.361243],[103.789313,22.361583],[103.78917,22.361607],[103.78889,22.361541],[103.788666,22.36136],[103.788552,22.361044],[103.788624,22.360211],[103.788591,22.359829],[103.788448,22.359222],[103.788227,22.358873],[103.788003,22.358813],[103.787307,22.35899],[103.786492,22.359029],[103.786294,22.359283],[103.78617,22.35993],[103.785915,22.360088],[103.785712,22.360065],[103.784858,22.359552],[103.784299,22.359575],[103.783646,22.359407],[103.783015,22.359902],[103.782001,22.360004],[103.781821,22.360074],[103.780529,22.360915],[103.780254,22.361408],[103.780007,22.361696],[103.779649,22.361913],[103.779338,22.361931],[103.778856,22.361634],[103.778224,22.361584],[103.778001,22.361415],[103.777941,22.361256],[103.77801,22.360488],[103.778246,22.359851],[103.778135,22.359627],[103.777715,22.359282],[103.777858,22.358867],[103.777851,22.358699],[103.77764,22.35852],[103.776959,22.35823],[103.776623,22.35768],[103.776585,22.357536],[103.77667,22.357363],[103.777486,22.3573],[103.777604,22.357079],[103.777573,22.356944],[103.777414,22.356836],[103.7766,22.356655],[103.776153,22.356417],[103.775896,22.356132],[103.7758,22.355919],[103.775861,22.355359],[103.775355,22.354647],[103.775014,22.354572],[103.774428,22.354875],[103.77421,22.354814],[103.774122,22.354714],[103.774104,22.354533],[103.774397,22.35387],[103.775096,22.353665],[103.7753,22.353688],[103.775761,22.354001],[103.776012,22.354015],[103.776234,22.353821],[103.776327,22.353597],[103.776157,22.353327],[103.775772,22.353151],[103.775168,22.353064],[103.774343,22.353299],[103.773695,22.353309],[103.773534,22.353202],[103.773107,22.352515],[103.772693,22.352306],[103.772057,22.352463],[103.77083,22.352538],[103.770093,22.352399],[103.769516,22.352738],[103.768129,22.352838],[103.76753,22.353058],[103.766835,22.352942],[103.766354,22.352952],[103.765295,22.352712],[103.765067,22.352734],[103.76473,22.353125],[103.763943,22.353428],[103.763563,22.354001],[103.762347,22.354867],[103.761647,22.355169],[103.761167,22.35516],[103.761015,22.355282],[103.760995,22.355471],[103.761279,22.35619],[103.761532,22.356354],[103.761796,22.356296],[103.761995,22.355893],[103.762169,22.35583],[103.762716,22.355986],[103.763731,22.355985],[103.763892,22.356059],[103.763977,22.356214],[103.7639,22.356456],[103.76392,22.35663],[103.764042,22.356817],[103.764361,22.357052],[103.76436,22.35803],[103.764567,22.359033],[103.764581,22.359577],[103.764483,22.359799],[103.764147,22.360064],[103.764063,22.360527],[103.763625,22.361277],[103.763566,22.361629],[103.76333,22.361964],[103.763327,22.362131],[103.76357,22.362439],[103.763451,22.36298],[103.763154,22.363401],[103.763356,22.364149],[103.762738,22.364928],[103.762686,22.365562],[103.761938,22.366237],[103.761491,22.366488],[103.761199,22.366946],[103.760513,22.367748],[103.760095,22.368131],[103.759912,22.368426],[103.759835,22.368881],[103.759653,22.369204],[103.759556,22.369607],[103.75894,22.370217],[103.758826,22.370416],[103.758769,22.370777],[103.758673,22.370961],[103.757894,22.37158],[103.757503,22.372276],[103.75739,22.372723]]}},{"type":"Feature","properties":{"k":"road","c":1,"name":"QL4D"},"geometry":{"type":"LineString","coordinates":[[103.841643,22.334522],[103.841016,22.335042],[103.841136,22.335465],[103.841319,22.335795],[103.841985,22.335609],[103.84366,22.336042],[103.845336,22.335928],[103.846871,22.336352],[103.847303,22.336715],[103.848638,22.336884],[103.849914,22.336909],[103.850268,22.337163],[103.852847,22.338158],[103.853101,22.338394],[103.853567,22.339034],[103.854281,22.339298],[103.854446,22.33943],[103.854601,22.34021],[103.855327,22.34118],[103.855611,22.341876],[103.856715,22.342628],[103.857432,22.343564],[103.857499,22.343775],[103.857429,22.343934],[103.857202,22.344059],[103.85645,22.343937],[103.856211,22.34396],[103.855967,22.344264],[103.856006,22.34451],[103.856763,22.344795],[103.856837,22.34502],[103.856599,22.345513],[103.856523,22.345879],[103.856537,22.346823],[103.856292,22.347526],[103.856206,22.348875],[103.856547,22.35002],[103.856708,22.351118],[103.856359,22.35193],[103.855798,22.352318],[103.855737,22.352428],[103.85592,22.353013],[103.855806,22.353422],[103.855849,22.353651],[103.856661,22.35391],[103.857113,22.353964],[103.857247,22.353844],[103.857265,22.353471],[103.857367,22.353275],[103.858391,22.353096],[103.858671,22.352911],[103.859202,22.352309],[103.859418,22.352224],[103.859698,22.352254],[103.859905,22.352423],[103.860251,22.353196],[103.861066,22.35408],[103.861034,22.354266],[103.860543,22.354798],[103.860373,22.355331],[103.860405,22.355423],[103.860632,22.355516],[103.861167,22.355175],[103.861549,22.355151],[103.861738,22.355269],[103.862044,22.355621],[103.862775,22.355895],[103.863089,22.356304],[103.863229,22.356796],[103.863152,22.357386],[103.863046,22.357602],[103.862696,22.357822],[103.862647,22.357965],[103.863239,22.358609],[103.86358,22.359094],[103.863689,22.359557],[103.863627,22.360331],[103.864053,22.36089],[103.864478,22.361741],[103.86519,22.362515],[103.865952,22.363151],[103.866072,22.364143],[103.866009,22.364699],[103.866067,22.365023],[103.866195,22.36518],[103.867058,22.365562],[103.867501,22.365992],[103.867832,22.366681],[103.868391,22.368259],[103.868492,22.368925],[103.868607,22.369076],[103.869046,22.369393],[103.8702,22.370888],[103.870837,22.371306],[103.870953,22.371562],[103.871022,22.372153],[103.871111,22.372272],[103.871586,22.372587],[103.871841,22.373306],[103.872187,22.373452],[103.872726,22.373246],[103.873214,22.373301],[103.873978,22.373663],[103.874177,22.374077],[103.874362,22.374267],[103.875289,22.374727],[103.875354,22.374845],[103.875411,22.375476],[103.875602,22.375682],[103.876133,22.375967],[103.876332,22.376148],[103.87665,22.377222],[103.876823,22.377311],[103.877248,22.377326],[103.877454,22.377416],[103.877674,22.378217],[103.877935,22.378795],[103.87891,22.379639],[103.87895,22.379848],[103.878603,22.380301],[103.878561,22.380615],[103.878754,22.380707],[103.879506,22.38055],[103.879747,22.380617],[103.879803,22.380744],[103.879683,22.381324],[103.87972,22.381459],[103.879933,22.381668],[103.880773,22.382046],[103.880823,22.382314],[103.880738,22.38247],[103.880187,22.382992],[103.880095,22.38317],[103.880105,22.383375],[103.8804,22.383613],[103.881298,22.383544],[103.881507,22.383624],[103.881627,22.383757],[103.881646,22.384132],[103.881408,22.384888],[103.881682,22.385593],[103.882121,22.386111],[103.882152,22.386226],[103.881833,22.387252],[103.881871,22.387979],[103.881332,22.388593],[103.881247,22.388812],[103.881247,22.388987],[103.881471,22.389523],[103.881389,22.390335],[103.881442,22.390414],[103.881636,22.390461],[103.88254,22.39033],[103.883182,22.390663],[103.883916,22.391153],[103.88401,22.39142],[103.883846,22.392044],[103.884175,22.392987],[103.884973,22.39312],[103.885547,22.393287],[103.885653,22.393408],[103.885721,22.393877],[103.885862,22.393994],[103.886178,22.394108],[103.88627,22.394212],[103.886205,22.394647],[103.885759,22.394987],[103.885621,22.395167],[103.885686,22.395463],[103.886016,22.395746],[103.886671,22.395676],[103.886982,22.395818],[103.887214,22.396219],[103.887202,22.396765],[103.887292,22.396895],[103.888536,22.396958],[103.888861,22.397131],[103.889253,22.397516],[103.889459,22.397526],[103.889814,22.397417],[103.889979,22.397497],[103.890058,22.398454],[103.890227,22.398868],[103.890342,22.399023],[103.890794,22.399286],[103.89121,22.400723],[103.891319,22.400844],[103.891787,22.401095],[103.891726,22.401705],[103.891849,22.40191],[103.893682,22.402493],[103.895345,22.403108],[103.896013,22.40291],[103.896167,22.402915],[103.896329,22.403046],[103.896587,22.403515],[103.896839,22.403677],[103.897085,22.403742],[103.898298,22.403701],[103.89848,22.403808],[103.898982,22.404393],[103.899415,22.404751],[103.899985,22.405658],[103.900594,22.406165],[103.900937,22.406598],[103.900912,22.406968],[103.900481,22.407706],[103.900213,22.408449],[103.899824,22.408963],[103.900023,22.409999],[103.899774,22.410292],[103.898537,22.411143],[103.89838,22.411376],[103.898484,22.411549],[103.898722,22.411572],[103.899158,22.411099],[103.899889,22.410811],[103.90031,22.410731],[103.900487,22.410882],[103.900487,22.411048],[103.900382,22.411125],[103.899795,22.411143],[103.899496,22.411242],[103.899462,22.411353],[103.899789,22.412017],[103.899773,22.412204],[103.899715,22.412309],[103.898773,22.412966],[103.898777,22.413181],[103.899252,22.413955],[103.8995,22.414081],[103.900243,22.414055],[103.901364,22.414357],[103.902014,22.414376],[103.903125,22.414887],[103.90418,22.415007],[103.904568,22.415258],[103.90481,22.415845],[103.905016,22.415999],[103.90524,22.415978],[103.905944,22.415654],[103.906159,22.415726],[103.907018,22.416246],[103.90787,22.416485],[103.909641,22.416417],[103.910708,22.417232],[103.910993,22.417694],[103.911299,22.417825],[103.91174,22.417878],[103.911985,22.418066],[103.912475,22.418823],[103.913184,22.419149],[103.914066,22.419704],[103.914198,22.419938],[103.914134,22.420213],[103.914187,22.420412],[103.914745,22.420696],[103.914843,22.420834],[103.914812,22.421089],[103.914501,22.421405],[103.91445,22.421584],[103.914784,22.422269],[103.915581,22.423057],[103.916526,22.423586],[103.918307,22.42569],[103.918317,22.425872],[103.918213,22.426037],[103.91686,22.427047],[103.916741,22.427344],[103.916794,22.427626],[103.917,22.427719],[103.917638,22.427456],[103.917858,22.427446],[103.918612,22.42772],[103.919554,22.427707],[103.920232,22.427621],[103.921299,22.427205],[103.921915,22.427411],[103.922003,22.42751],[103.922086,22.428137],[103.922301,22.428558],[103.922255,22.42903],[103.922614,22.429617],[103.922426,22.430136],[103.922978,22.430652],[103.923037,22.431188],[103.923157,22.431296],[103.923824,22.431402],[103.924525,22.432099],[103.924564,22.4323],[103.924449,22.433122],[103.924474,22.433332],[103.924577,22.433449],[103.924861,22.433539],[103.925544,22.433387],[103.925732,22.433434],[103.925873,22.433562],[103.925928,22.433743],[103.925896,22.433888],[103.92542,22.43438],[103.92517,22.435145],[103.925514,22.435702],[103.925524,22.436515],[103.925026,22.437595],[103.924494,22.438201],[103.924468,22.438372],[103.924613,22.438516],[103.92504,22.438441],[103.925553,22.438178],[103.925989,22.437725],[103.926432,22.437393],[103.926673,22.436879],[103.927108,22.436374],[103.927352,22.43621],[103.927748,22.436137],[103.928981,22.436409],[103.929351,22.436607],[103.929824,22.438205],[103.92993,22.438285],[103.930235,22.438218],[103.930925,22.437735],[103.931108,22.437672],[103.931265,22.437745],[103.931493,22.438248],[103.931598,22.438354],[103.932421,22.438627],[103.933106,22.438997],[103.933568,22.439484],[103.934119,22.439773],[103.934457,22.440731],[103.934622,22.440846],[103.934874,22.440868],[103.936971,22.440237],[103.938053,22.440267],[103.938641,22.440161],[103.939448,22.439911],[103.939749,22.439894],[103.939958,22.439995],[103.939959,22.440252],[103.939303,22.44051],[103.939118,22.440664],[103.938944,22.441016],[103.938754,22.441505],[103.9387,22.442707],[103.938263,22.443985],[103.938182,22.444506],[103.937987,22.44506],[103.937386,22.445697],[103.937294,22.446475],[103.937209,22.446629],[103.93695,22.446677],[103.936217,22.446276],[103.936022,22.446274],[103.935862,22.446374],[103.935559,22.447031],[103.935369,22.447132],[103.934838,22.447177],[103.934571,22.447403],[103.934062,22.448518],[103.934701,22.449663],[103.934803,22.449963],[103.934784,22.450171],[103.934089,22.451355],[103.933939,22.451405],[103.93314,22.451219],[103.932988,22.451276],[103.932818,22.451444],[103.932741,22.451679],[103.932774,22.45304],[103.932878,22.453311],[103.933195,22.453519],[103.933423,22.453536],[103.934387,22.453384],[103.935548,22.453426],[103.936007,22.453649],[103.936605,22.453737],[103.936784,22.453829],[103.936865,22.454034],[103.936772,22.454229],[103.935993,22.454559],[103.935901,22.454719],[103.93591,22.454844],[103.936068,22.454958],[103.937078,22.454857],[103.937339,22.455069],[103.937364,22.455247],[103.937181,22.455621],[103.937174,22.455785],[103.937421,22.45608],[103.937638,22.456502],[103.937807,22.457193],[103.937773,22.457433],[103.937453,22.457942],[103.937502,22.45818],[103.93778,22.458276],[103.938964,22.457752],[103.93915,22.457717],[103.939241,22.457762],[103.939414,22.457914],[103.93953,22.458166],[103.939309,22.4586],[103.939204,22.458962],[103.939192,22.459223],[103.939273,22.459331],[103.939416,22.459416],[103.940034,22.459508],[103.941029,22.459306],[103.941343,22.459331],[103.941487,22.459455],[103.941575,22.459685],[103.941527,22.46014],[103.941581,22.46035],[103.942263,22.460573],[103.942566,22.46074],[103.943031,22.461191],[103.943094,22.461502],[103.943025,22.461826],[103.941774,22.463523],[103.941714,22.463695],[103.941795,22.463929],[103.943385,22.465079],[103.943633,22.465169],[103.94387,22.465141],[103.945527,22.464575],[103.947122,22.463876],[103.947336,22.463627],[103.947439,22.463393],[103.947806,22.46206],[103.948321,22.46127],[103.948835,22.460878],[103.949554,22.460448],[103.949944,22.459967],[103.951007,22.459472],[103.951336,22.459087],[103.951964,22.458691],[103.952732,22.457695],[103.953114,22.457497],[103.953471,22.457524],[103.953884,22.457672],[103.954337,22.457663],[103.954732,22.457514],[103.955479,22.457059],[103.956027,22.456944],[103.95694,22.456879],[103.957484,22.457115],[103.957925,22.45768],[103.958185,22.457842],[103.960512,22.458676],[103.960697,22.458842],[103.96115,22.45947],[103.962018,22.459918],[103.962298,22.460476],[103.962789,22.461066],[103.962762,22.461299],[103.962356,22.461898],[103.961928,22.462997],[103.961774,22.463662],[103.961735,22.464216],[103.961843,22.46447],[103.962733,22.465644],[103.962914,22.465836],[103.963531,22.466179],[103.963701,22.466353],[103.963741,22.466487],[103.963709,22.466773],[103.96356,22.467023],[103.962583,22.467562],[103.961813,22.468352],[103.961711,22.468658],[103.961759,22.469029],[103.962092,22.469355],[103.963011,22.469906],[103.963752,22.47026],[103.964134,22.471031],[103.965253,22.472116],[103.965605,22.473217],[103.965826,22.473489],[103.966106,22.473791],[103.967507,22.474802],[103.968039,22.474931],[103.968462,22.474936],[103.968717,22.474854],[103.969014,22.474572],[103.969151,22.474257],[103.969595,22.473656],[103.970204,22.473316],[103.970943,22.473148],[103.971565,22.473053],[103.972311,22.473211],[103.972986,22.473913],[103.973358,22.474966],[103.973326,22.475159],[103.970818,22.48191],[103.975278,22.485778]]}},{"type":"Feature","properties":{"k":"road","c":2,"name":"\u0110T152"},"geometry":{"type":"LineString","coordinates":[[103.840767,22.334456],[103.840607,22.33399],[103.840959,22.33374],[103.840181,22.332976],[103.839597,22.332616],[103.839088,22.332505],[103.838659,22.332661],[103.838349,22.332884],[103.837438,22.332867],[103.837403,22.332797],[103.83747,22.332636],[103.838424,22.332494],[103.839152,22.332075],[103.842544,22.33153],[103.843097,22.331419],[103.843501,22.331221],[103.844153,22.330825],[103.844491,22.330545],[103.845748,22.327955],[103.846102,22.327472],[103.846271,22.327403],[103.846687,22.327477],[103.847427,22.327475],[103.84765,22.32744],[103.848281,22.327178],[103.84848,22.327248],[103.848707,22.327648],[103.84899,22.327822],[103.849584,22.328084],[103.849955,22.328029],[103.852028,22.327251],[103.852279,22.327095],[103.8524,22.326921],[103.852435,22.326378],[103.852798,22.325415],[103.852929,22.32527],[103.853958,22.325542],[103.854355,22.325396],[103.854457,22.325291],[103.854591,22.325071],[103.854602,22.324783],[103.854424,22.324389],[103.854365,22.323927],[103.854134,22.323634],[103.854087,22.323463],[103.854481,22.323081],[103.85424,22.322582],[103.854264,22.322355],[103.854835,22.321862],[103.855062,22.321134],[103.855031,22.320782],[103.854764,22.320139],[103.854762,22.319792],[103.854988,22.319612],[103.855577,22.319766],[103.855753,22.319758],[103.856113,22.319528],[103.856496,22.319658],[103.857149,22.319654],[103.85764,22.319344],[103.858087,22.319355],[103.857961,22.319171],[103.856836,22.319054],[103.856722,22.318944],[103.856757,22.318802],[103.856911,22.318719],[103.857801,22.318598],[103.857921,22.318528],[103.857904,22.318404],[103.857306,22.318095],[103.856904,22.317611],[103.856967,22.31698],[103.856842,22.316731],[103.856951,22.31609],[103.856874,22.315798],[103.857216,22.315062],[103.857493,22.314725],[103.857439,22.314494],[103.857244,22.314224],[103.857259,22.314138],[103.857759,22.31327],[103.858132,22.313049],[103.858517,22.312513],[103.858947,22.312375],[103.859413,22.312036],[103.859683,22.31199],[103.860024,22.311773],[103.860278,22.311734],[103.860616,22.311915],[103.861223,22.312725],[103.861196,22.313009],[103.861136,22.313085],[103.860532,22.313244],[103.860685,22.313746],[103.860736,22.313813],[103.86083,22.313808],[103.860766,22.313534],[103.860813,22.313415],[103.861176,22.313409],[103.861718,22.313103],[103.861929,22.312287],[103.862285,22.311569],[103.862446,22.311425],[103.862824,22.31128],[103.863282,22.310905],[103.863329,22.310498],[103.863216,22.310385],[103.862811,22.310358],[103.862445,22.310555],[103.86201,22.310389],[103.861831,22.310433],[103.861595,22.310355],[103.86117,22.310427],[103.860835,22.310299],[103.860565,22.309038],[103.860149,22.308148],[103.861922,22.307547],[103.862206,22.307344],[103.86245,22.307272],[103.862844,22.306627],[103.862871,22.306165],[103.862767,22.305915],[103.863098,22.30581],[103.863258,22.305606],[103.863397,22.305596],[103.863508,22.305475],[103.863638,22.305478],[103.863713,22.305534],[103.863727,22.305739],[103.863807,22.305835],[103.864395,22.305819],[103.865025,22.305885],[103.865127,22.305957],[103.865379,22.306375],[103.86568,22.306561],[103.865956,22.306577],[103.86648,22.306761],[103.866889,22.307287],[103.867195,22.307442],[103.867269,22.307438],[103.86742,22.307222],[103.868054,22.307035],[103.868319,22.30682],[103.868936,22.306769],[103.869231,22.306817],[103.869626,22.306998],[103.869879,22.306959],[103.86994,22.306839],[103.870081,22.307054],[103.870188,22.307555],[103.870561,22.308051],[103.870752,22.308123],[103.871143,22.307942],[103.871186,22.307597],[103.871138,22.307379],[103.871299,22.307029],[103.871225,22.306717],[103.871433,22.306624],[103.871972,22.306694],[103.872184,22.306803],[103.872413,22.307007],[103.872535,22.307376],[103.872838,22.307597],[103.873008,22.307568],[103.873128,22.307418],[103.873521,22.307365],[103.874137,22.306868],[103.874963,22.306547],[103.875491,22.306738],[103.875601,22.307009],[103.876286,22.30707],[103.876594,22.30701],[103.876694,22.307106],[103.876804,22.306944],[103.878505,22.306575],[103.878581,22.306443],[103.878649,22.305778],[103.878829,22.305343],[103.879403,22.305003],[103.879595,22.304977],[103.880251,22.305178],[103.880401,22.30518],[103.880704,22.305015],[103.881066,22.304988],[103.881584,22.305],[103.882007,22.305088],[103.882096,22.305015],[103.882477,22.304202],[103.882454,22.303586],[103.882599,22.303472],[103.883735,22.303525],[103.883914,22.30381],[103.884041,22.303901],[103.88429,22.303907],[103.884609,22.303754],[103.884981,22.303988],[103.886017,22.303606],[103.886848,22.303495],[103.88734,22.303185],[103.887326,22.302938],[103.887974,22.302761],[103.888616,22.302469],[103.888437,22.302251],[103.888616,22.302469],[103.887974,22.302761],[103.887326,22.302938],[103.88734,22.303185],[103.886848,22.303495],[103.886017,22.303606],[103.884981,22.303988],[103.884609,22.303754],[103.88429,22.303907],[103.884041,22.303901],[103.883914,22.30381],[103.883735,22.303525],[103.882599,22.303472],[103.882454,22.303586],[103.882477,22.304202],[103.882096,22.305015],[103.882007,22.305088],[103.881584,22.305],[103.881066,22.304988],[103.880704,22.305015],[103.880401,22.30518],[103.880251,22.305178],[103.879595,22.304977],[103.879403,22.305003],[103.878829,22.305343],[103.878649,22.305778],[103.878581,22.306443],[103.878505,22.306575],[103.876804,22.306944],[103.876694,22.307106],[103.876594,22.30701],[103.876286,22.30707],[103.875601,22.307009],[103.875491,22.306738],[103.874963,22.306547],[103.874137,22.306868],[103.873521,22.307365],[103.873128,22.307418],[103.873008,22.307568],[103.872838,22.307597],[103.872535,22.307376],[103.872413,22.307007],[103.872184,22.306803],[103.871972,22.306694],[103.871433,22.306624],[103.871225,22.306717],[103.871299,22.307029],[103.871138,22.307379],[103.871186,22.307597],[103.871143,22.307942],[103.870752,22.308123],[103.870561,22.308051],[103.870188,22.307555],[103.870081,22.307054],[103.86994,22.306839],[103.869879,22.306959],[103.869626,22.306998],[103.869231,22.306817],[103.868936,22.306769],[103.868319,22.30682],[103.868054,22.307035],[103.86742,22.307222],[103.867269,22.307438],[103.867195,22.307442],[103.866889,22.307287],[103.86648,22.306761],[103.865956,22.306577],[103.86568,22.306561],[103.865379,22.306375],[103.865127,22.305957],[103.865025,22.305885],[103.864395,22.305819],[103.863807,22.305835],[103.863727,22.305739],[103.863713,22.305534],[103.863638,22.305478],[103.863508,22.305475],[103.863397,22.305596],[103.863258,22.305606],[103.863098,22.30581],[103.862767,22.305915],[103.862871,22.306165],[103.862844,22.306627],[103.86245,22.307272],[103.862206,22.307344],[103.861922,22.307547],[103.860149,22.308148],[103.860565,22.309038],[103.860835,22.310299],[103.86117,22.310427],[103.861595,22.310355],[103.861831,22.310433],[103.86201,22.310389],[103.862445,22.310555],[103.862811,22.310358],[103.863282,22.310402],[103.863329,22.310498],[103.863264,22.310942],[103.862824,22.31128],[103.862446,22.311425],[103.862285,22.311569],[103.861929,22.312287],[103.861718,22.313103],[103.861176,22.313409],[103.860813,22.313415],[103.860766,22.313534],[103.86083,22.313808],[103.860736,22.313813],[103.860685,22.313746],[103.860532,22.313244],[103.861136,22.313085],[103.861196,22.313009],[103.861223,22.312725],[103.860616,22.311915],[103.860333,22.311753],[103.860024,22.311773],[103.859683,22.31199],[103.859413,22.312036],[103.858947,22.312375],[103.858474,22.312545],[103.858132,22.313049],[103.857759,22.31327],[103.857259,22.314138],[103.857244,22.314224],[103.857439,22.314494],[103.857493,22.314725],[103.857216,22.315062],[103.856874,22.315798],[103.856951,22.31609],[103.856842,22.316731],[103.856967,22.31698],[103.856889,22.317578],[103.857306,22.318095],[103.857869,22.31838],[103.857923,22.318481],[103.857801,22.318598],[103.856835,22.318748],[103.856724,22.318852],[103.856743,22.318987],[103.856836,22.319054],[103.857961,22.319171],[103.858087,22.319355],[103.859741,22.319488],[103.859848,22.319606],[103.859854,22.319787],[103.859637,22.320294],[103.85972,22.320509],[103.859843,22.320576],[103.860302,22.3205],[103.862716,22.319416],[103.863032,22.319036],[103.863182,22.318957],[103.863545,22.318939],[103.863864,22.319111],[103.864076,22.319138],[103.864574,22.319039],[103.865291,22.318607],[103.86587,22.318101],[103.867632,22.317989],[103.868064,22.317624],[103.868877,22.317349],[103.869193,22.317118],[103.870329,22.31708],[103.871487,22.316509],[103.872111,22.316442],[103.872636,22.316095],[103.872876,22.31601],[103.873575,22.315944],[103.874162,22.315796],[103.874705,22.315896],[103.875112,22.315886],[103.875561,22.315523],[103.876076,22.314889],[103.876235,22.314828],[103.877146,22.314752],[103.878172,22.314941],[103.878347,22.315039],[103.8787,22.315407],[103.878919,22.315485],[103.880496,22.315339],[103.882379,22.314915],[103.88424,22.314222],[103.885076,22.313748],[103.885666,22.313654],[103.886007,22.313509],[103.886149,22.313379],[103.886147,22.312695],[103.885954,22.312473],[103.885378,22.312433],[103.88515,22.312317],[103.884954,22.312121],[103.884804,22.311684],[103.884753,22.310715],[103.884629,22.310537],[103.884027,22.310137],[103.883968,22.309923],[103.884025,22.309731],[103.884192,22.309555],[103.885261,22.309155],[103.88581,22.309116],[103.886507,22.309205],[103.88668,22.309137],[103.886856,22.308779],[103.886762,22.308212],[103.886933,22.307964],[103.887564,22.307856],[103.888156,22.307462],[103.888891,22.307446],[103.88917,22.307351],[103.889516,22.306999],[103.889758,22.306586],[103.889925,22.306449],[103.890066,22.306433],[103.89049,22.306549],[103.891049,22.306219],[103.891851,22.306127],[103.892806,22.305733],[103.893082,22.305722],[103.893399,22.305798],[103.893659,22.30592],[103.894014,22.306201],[103.894633,22.306283],[103.894914,22.306469],[103.895105,22.306459],[103.895322,22.306353],[103.895555,22.306128],[103.895834,22.305407],[103.89597,22.30535],[103.8964,22.305354],[103.896601,22.305025],[103.896734,22.304917],[103.897213,22.304898],[103.897488,22.304556],[103.898113,22.304392],[103.898472,22.303883],[103.898577,22.30387],[103.898885,22.304055],[103.899105,22.304072],[103.899642,22.303833],[103.900352,22.303684],[103.900468,22.30358],[103.900626,22.302808],[103.900759,22.302655],[103.901105,22.302468],[103.901692,22.301878],[103.902433,22.301745],[103.902952,22.301359],[103.903012,22.301218],[103.90298,22.300639],[103.903147,22.300351],[103.904703,22.300237],[103.904861,22.300296],[103.905135,22.300538],[103.905303,22.30059],[103.906012,22.30028],[103.90639,22.299815],[103.907031,22.299927],[103.907246,22.299877],[103.908006,22.299352],[103.908328,22.298964],[103.908691,22.298835],[103.909465,22.298291],[103.909829,22.298023],[103.910196,22.297584],[103.910751,22.297232],[103.91228,22.29704],[103.912472,22.296938],[103.912868,22.2964],[103.913503,22.296075],[103.913883,22.295725],[103.914662,22.295216],[103.914857,22.294559],[103.91585,22.293669],[103.916125,22.293251],[103.916503,22.292906],[103.917022,22.292866],[103.917295,22.292598],[103.918023,22.292253],[103.918367,22.291856],[103.918559,22.291781],[103.919085,22.29178],[103.919491,22.292183],[103.919757,22.292241],[103.920013,22.292195],[103.920688,22.291192],[103.921124,22.290866],[103.921157,22.289372],[103.921445,22.28909],[103.921844,22.289106],[103.922347,22.289621],[103.922646,22.289618],[103.923422,22.288797],[103.924094,22.288379],[103.924962,22.288238],[103.925494,22.287825],[103.926181,22.287854],[103.926835,22.287633],[103.927676,22.28713],[103.928451,22.287176],[103.929774,22.286865],[103.93072,22.286451],[103.931952,22.286498],[103.932381,22.286282],[103.932586,22.286249],[103.933007,22.286455],[103.93322,22.28643],[103.933765,22.285931],[103.934112,22.285457],[103.935044,22.285431],[103.93533,22.285345],[103.935554,22.285111],[103.935705,22.284694],[103.936439,22.284356],[103.936847,22.284034],[103.937101,22.28378],[103.937299,22.28327],[103.937727,22.28296],[103.93811,22.282861],[103.93864,22.282886],[103.939143,22.282824],[103.939715,22.282905],[103.939996,22.282807],[103.940289,22.282573],[103.940532,22.282245],[103.94114,22.281869],[103.941464,22.281462],[103.941749,22.280922],[103.941958,22.280338],[103.942379,22.278802],[103.942975,22.278035],[103.942463,22.277399],[103.942093,22.277084],[103.942035,22.276932],[103.942089,22.276568],[103.942218,22.276434],[103.942672,22.276304],[103.943317,22.276756],[103.943541,22.276775],[103.943725,22.276671],[103.943737,22.276376],[103.943477,22.275977],[103.943579,22.275543],[103.944005,22.275165],[103.944376,22.274706],[103.945047,22.274395],[103.945617,22.274396],[103.945819,22.274274],[103.94607,22.273698],[103.946092,22.273512],[103.945783,22.272751],[103.945782,22.272595],[103.946488,22.271816],[103.946836,22.27182],[103.947138,22.272055],[103.947152,22.272204],[103.946964,22.272634],[103.94706,22.272807],[103.94782,22.273113],[103.94824,22.273548],[103.948791,22.273948],[103.949548,22.274091],[103.950105,22.274545],[103.95133,22.274663],[103.952099,22.274647],[103.952833,22.274526],[103.95343,22.274738],[103.954302,22.274676],[103.955619,22.274816],[103.956254,22.274952],[103.956879,22.274778],[103.95769,22.274894],[103.958119,22.274546],[103.958634,22.274607],[103.95877,22.274572],[103.959346,22.274152],[103.959831,22.274249],[103.960261,22.274041],[103.961254,22.274082],[103.961771,22.273988],[103.96258,22.273664],[103.963389,22.273002],[103.964165,22.272568],[103.964709,22.272467],[103.96521,22.272577],[103.966119,22.272502],[103.967195,22.272251],[103.967617,22.27204],[103.967735,22.271933],[103.967758,22.27156],[103.967675,22.271369],[103.967508,22.271297],[103.967385,22.271375],[103.967255,22.271782],[103.966692,22.272049],[103.96555,22.27199],[103.96405,22.271553],[103.96315,22.271622],[103.962762,22.272011],[103.961991,22.272276],[103.961268,22.272189],[103.960562,22.27193],[103.960077,22.271884],[103.959926,22.271792],[103.959883,22.271569],[103.960041,22.271214],[103.960064,22.270994],[103.959533,22.270537],[103.959401,22.270034],[103.959476,22.269886],[103.959669,22.269879],[103.959764,22.269966],[103.959823,22.270375],[103.959915,22.270484],[103.960484,22.270651],[103.960807,22.271056],[103.961622,22.271251],[103.962459,22.271024],[103.964252,22.270211],[103.964505,22.270205],[103.964927,22.270364],[103.965093,22.270349],[103.965287,22.270212],[103.966,22.269394],[103.967198,22.268928],[103.968312,22.26897],[103.969109,22.269397],[103.969831,22.269277],[103.97077,22.269439],[103.971112,22.269351],[103.971295,22.268724],[103.971156,22.268263],[103.971011,22.268156],[103.97086,22.268288],[103.970921,22.268765],[103.970874,22.26886],[103.970209,22.26884],[103.969854,22.268996],[103.96953,22.268866],[103.969167,22.268863],[103.968885,22.268646],[103.968749,22.268422],[103.968558,22.268261],[103.967715,22.268092],[103.966867,22.267774],[103.965987,22.26803],[103.965786,22.268028],[103.965401,22.267964],[103.965149,22.267823],[103.965048,22.267695],[103.965023,22.267458],[103.965154,22.266895],[103.965126,22.26587],[103.965447,22.265384],[103.965931,22.265052],[103.965897,22.263728],[103.96704,22.263699],[103.967249,22.263604],[103.967581,22.263805],[103.968059,22.263785]]}},{"type":"Feature","properties":{"k":"road","c":3,"name":""},"geometry":{"type":"LineString","coordinates":[[103.840767,22.334456],[103.840607,22.33399],[103.840959,22.33374],[103.840181,22.332976],[103.839597,22.332616],[103.839088,22.332505],[103.838659,22.332661],[103.838349,22.332884],[103.837438,22.332867],[103.837403,22.332797],[103.83747,22.332636],[103.838424,22.332494],[103.839152,22.332075],[103.842544,22.33153],[103.843097,22.331419],[103.843501,22.331221],[103.844153,22.330825],[103.844491,22.330545],[103.845748,22.327955],[103.846102,22.327472],[103.846271,22.327403],[103.846687,22.327477],[103.847427,22.327475],[103.84765,22.32744],[103.848281,22.327178],[103.84848,22.327248],[103.848707,22.327648],[103.84899,22.327822],[103.849584,22.328084],[103.849955,22.328029],[103.852028,22.327251],[103.852279,22.327095],[103.8524,22.326921],[103.852435,22.326378],[103.852798,22.325415],[103.852929,22.32527],[103.853958,22.325542],[103.854355,22.325396],[103.854457,22.325291],[103.854591,22.325071],[103.854602,22.324783],[103.854424,22.324389],[103.854365,22.323927],[103.854134,22.323634],[103.854087,22.323463],[103.854481,22.323081],[103.85424,22.322582],[103.854264,22.322355],[103.854835,22.321862],[103.855062,22.321134],[103.855031,22.320782],[103.854764,22.320139],[103.854762,22.319792],[103.854988,22.319612],[103.855577,22.319766],[103.855753,22.319758],[103.856113,22.319528],[103.856496,22.319658],[103.857149,22.319654],[103.85764,22.319344],[103.858087,22.319355],[103.857961,22.319171],[103.856836,22.319054],[103.856722,22.318944],[103.856757,22.318802],[103.856911,22.318719],[103.857801,22.318598],[103.857921,22.318528],[103.857904,22.318404],[103.857306,22.318095],[103.856904,22.317611],[103.856967,22.31698],[103.856842,22.316731],[103.856951,22.31609],[103.856874,22.315798],[103.857216,22.315062],[103.857493,22.314725],[103.857439,22.314494],[103.857244,22.314224],[103.857259,22.314138],[103.857759,22.31327],[103.858132,22.313049],[103.858517,22.312513],[103.858947,22.312375],[103.859413,22.312036],[103.859683,22.31199],[103.860024,22.311773],[103.860278,22.311734],[103.860616,22.311915],[103.861223,22.312725],[103.861196,22.313009],[103.861136,22.313085],[103.860532,22.313244],[103.860685,22.313746],[103.860736,22.313813],[103.86083,22.313808],[103.860766,22.313534],[103.860813,22.313415],[103.861176,22.313409],[103.861718,22.313103],[103.861929,22.312287],[103.862285,22.311569],[103.862446,22.311425],[103.862824,22.31128],[103.863282,22.310905],[103.863329,22.310498],[103.863216,22.310385],[103.862811,22.310358],[103.862445,22.310555],[103.86201,22.310389],[103.861831,22.310433],[103.861595,22.310355],[103.86117,22.310427],[103.860835,22.310299],[103.860565,22.309038],[103.860152,22.308205],[103.86024,22.308076],[103.861922,22.307547],[103.862206,22.307344],[103.86245,22.307272],[103.862844,22.306627],[103.862871,22.306165],[103.862767,22.305915],[103.863098,22.30581],[103.863258,22.305606],[103.863397,22.305596],[103.863539,22.305472],[103.863699,22.305511],[103.863727,22.305739],[103.863807,22.305835],[103.864395,22.305819],[103.865025,22.305885],[103.865127,22.305957],[103.865379,22.306375],[103.86568,22.306561],[103.865956,22.306577],[103.86648,22.306761],[103.866889,22.307287],[103.867231,22.307448],[103.86742,22.307222],[103.868054,22.307035],[103.868319,22.30682],[103.868936,22.306769],[103.869231,22.306817],[103.869626,22.306998],[103.869879,22.306959],[103.86994,22.306839],[103.870081,22.307054],[103.870188,22.307555],[103.870561,22.308051],[103.870687,22.308128],[103.871143,22.307942],[103.871186,22.307597],[103.871138,22.307379],[103.871299,22.307029],[103.871225,22.306717],[103.871495,22.306612],[103.872036,22.306711],[103.872286,22.306877],[103.872413,22.307007],[103.872535,22.307376],[103.872838,22.307597],[103.873008,22.307568],[103.873128,22.307418],[103.873521,22.307365],[103.874137,22.306868],[103.874901,22.306555],[103.875491,22.306738],[103.875601,22.307009],[103.876286,22.30707],[103.876641,22.307019],[103.876694,22.307106],[103.876599,22.307498],[103.876842,22.308766],[103.876817,22.309014],[103.876698,22.309252],[103.876239,22.309387],[103.875806,22.309643],[103.875707,22.309776]]}},{"type":"Feature","properties":{"k":"road","c":3,"name":""},"geometry":{"type":"LineString","coordinates":[[103.875707,22.309776],[103.875806,22.309643],[103.876239,22.309387],[103.876698,22.309252],[103.876817,22.309014],[103.876842,22.308766],[103.876599,22.307498],[103.876762,22.30698],[103.878505,22.306575],[103.878581,22.306443],[103.878664,22.305721],[103.878894,22.305277],[103.879505,22.304972],[103.880251,22.305178],[103.880401,22.30518],[103.880704,22.305015],[103.881066,22.304988],[103.881584,22.305],[103.882007,22.305088],[103.882096,22.305015],[103.882477,22.304202],[103.882454,22.303586],[103.882599,22.303472],[103.883735,22.303525],[103.883914,22.30381],[103.884041,22.303901],[103.88429,22.303907],[103.884609,22.303754],[103.884981,22.303988],[103.886017,22.303606],[103.886848,22.303495],[103.88734,22.303185],[103.887326,22.302938],[103.887974,22.302761],[103.888511,22.302522]]}},{"type":"Feature","properties":{"k":"road","c":3,"name":""},"geometry":{"type":"LineString","coordinates":[[103.840767,22.334456],[103.840607,22.33399],[103.840959,22.33374],[103.840181,22.332976],[103.839597,22.332616],[103.839088,22.332505],[103.838659,22.332661],[103.838349,22.332884],[103.837438,22.332867],[103.837403,22.332797],[103.83747,22.332636],[103.838424,22.332494],[103.839152,22.332075],[103.842544,22.33153],[103.843097,22.331419],[103.843501,22.331221],[103.844153,22.330825],[103.844491,22.330545],[103.845748,22.327955],[103.845998,22.327576],[103.846271,22.327403],[103.846687,22.327477],[103.847427,22.327475],[103.84765,22.32744],[103.848166,22.327196],[103.848379,22.327196],[103.84848,22.327248],[103.848707,22.327648],[103.849511,22.328065],[103.849726,22.328084],[103.85036,22.327898],[103.852028,22.327251],[103.852279,22.327095],[103.8524,22.326921],[103.852435,22.326378],[103.852798,22.325415],[103.852929,22.32527],[103.853958,22.325542],[103.854355,22.325396],[103.854579,22.325539],[103.854766,22.325494],[103.854936,22.324774],[103.854728,22.324299],[103.854712,22.324108],[103.855573,22.32301],[103.855016,22.322337],[103.855169,22.322115],[103.855758,22.322588],[103.856477,22.322986],[103.856631,22.322961],[103.856954,22.322744],[103.857122,22.322746],[103.858395,22.323339],[103.85899,22.323123],[103.859882,22.32304],[103.860189,22.323071],[103.86054,22.323401],[103.860964,22.32413],[103.861179,22.324237],[103.861554,22.324157],[103.86189,22.32381],[103.862222,22.323604],[103.863038,22.323463],[103.863212,22.323028],[103.863861,22.322659],[103.864945,22.322547],[103.865588,22.322825],[103.866353,22.322842],[103.867807,22.321644],[103.868187,22.321478],[103.868622,22.321684],[103.869118,22.321818],[103.86941,22.322061],[103.869858,22.32203],[103.870206,22.32222],[103.871453,22.321572],[103.871838,22.321584],[103.872342,22.321702],[103.872962,22.321508],[103.873132,22.321615],[103.873465,22.322512],[103.873577,22.322555],[103.874179,22.322502],[103.874594,22.322372],[103.874851,22.322411],[103.874975,22.322485],[103.8754,22.323024],[103.87595,22.32288],[103.876391,22.322231],[103.876716,22.322128]]}},{"type":"Feature","properties":{"k":"road","c":3,"name":""},"geometry":{"type":"LineString","coordinates":[[103.840767,22.334456],[103.840607,22.33399],[103.840959,22.33374],[103.840181,22.332976],[103.839597,22.332616],[103.839088,22.332505],[103.838659,22.332661],[103.838349,22.332884],[103.837438,22.332867],[103.837403,22.332797],[103.83747,22.332636],[103.836924,22.332603],[103.836924,22.332258],[103.83701,22.332059],[103.836691,22.331294],[103.836902,22.331171],[103.83698,22.331209],[103.837005,22.331143],[103.836717,22.330984],[103.836657,22.330858],[103.836674,22.330659],[103.836568,22.330619],[103.836293,22.330811],[103.83628,22.330654],[103.836131,22.330606],[103.835816,22.330876],[103.835553,22.330988],[103.835258,22.331047],[103.8349,22.331026],[103.834536,22.331152],[103.834063,22.331002],[103.833482,22.331149],[103.833072,22.331097],[103.832718,22.331365],[103.832533,22.33165],[103.832453,22.331922],[103.832313,22.332001],[103.831874,22.331965],[103.831699,22.331501],[103.831401,22.331149],[103.830307,22.331448],[103.829949,22.331362],[103.829543,22.331136],[103.82973,22.330683],[103.83001,22.330752],[103.830312,22.330293],[103.830179,22.330261],[103.830125,22.330112],[103.830259,22.329814],[103.83101,22.32937],[103.83179,22.32875],[103.831726,22.328704],[103.831754,22.328641],[103.831655,22.328611],[103.83176,22.328534],[103.831602,22.328407],[103.831615,22.328357],[103.831749,22.328359],[103.831764,22.32823],[103.83208,22.328364],[103.832574,22.328385],[103.833381,22.328146],[103.83387,22.327822],[103.834157,22.327492],[103.834367,22.327498],[103.834687,22.327168],[103.834897,22.327113],[103.835073,22.327219],[103.834863,22.327628],[103.835049,22.327968],[103.83508,22.328223],[103.834784,22.328582]]}},{"type":"Feature","properties":{"k":"road","c":3,"name":""},"geometry":{"type":"LineString","coordinates":[[103.888511,22.302522],[103.887559,22.302893],[103.886708,22.303024],[103.886449,22.302975],[103.88635,22.30281],[103.886786,22.302537],[103.886754,22.302364],[103.886642,22.302258],[103.886512,22.302228],[103.885929,22.302434],[103.885433,22.302496],[103.885202,22.302427],[103.884986,22.302091],[103.88465,22.30181],[103.884571,22.301381],[103.885077,22.301092],[103.885116,22.301004],[103.884988,22.300247],[103.885137,22.300168],[103.885384,22.30041],[103.88582,22.300464],[103.886666,22.300286],[103.887017,22.299853],[103.887027,22.299409],[103.88712,22.299267],[103.887923,22.299037],[103.888304,22.298711],[103.888894,22.298681],[103.889245,22.298346],[103.889732,22.298122],[103.889758,22.297998],[103.889618,22.297643],[103.889546,22.297078],[103.889452,22.296883],[103.889478,22.296779],[103.890036,22.296577],[103.890561,22.296699],[103.890823,22.296691],[103.891127,22.296532],[103.891165,22.296383],[103.891048,22.296322],[103.890646,22.296373],[103.89036,22.296153],[103.889144,22.295968],[103.888686,22.295661],[103.888105,22.295538],[103.887571,22.295288],[103.887182,22.294949],[103.886777,22.294721],[103.886287,22.294878],[103.885978,22.295131],[103.885888,22.295373],[103.886049,22.295639],[103.885952,22.295817],[103.885386,22.295792],[103.885298,22.295698],[103.885292,22.295569],[103.885558,22.295254],[103.885833,22.294756],[103.88558,22.294402],[103.885584,22.294185],[103.88573,22.294087],[103.885944,22.294064],[103.886386,22.294198],[103.886774,22.293878],[103.886951,22.293819],[103.887333,22.293898],[103.887808,22.294144],[103.888051,22.293923],[103.888118,22.293807],[103.88814,22.293407],[103.888638,22.293108],[103.888432,22.292676],[103.888733,22.292213],[103.888318,22.291666],[103.888222,22.291333],[103.888539,22.291144],[103.888799,22.290721],[103.888928,22.290621],[103.889093,22.29054],[103.889566,22.290475],[103.889868,22.289791],[103.889853,22.289518],[103.889905,22.289416],[103.89012,22.289397],[103.890249,22.289453],[103.890516,22.289828],[103.890931,22.289948],[103.891816,22.290073],[103.89211,22.289922],[103.892408,22.28936],[103.892559,22.289294],[103.893085,22.289356],[103.893731,22.289727],[103.893963,22.289691],[103.894014,22.289577],[103.893973,22.289422],[103.893544,22.288895],[103.893703,22.288521],[103.893672,22.288222],[103.893843,22.288067],[103.894466,22.288161],[103.894847,22.288103],[103.894886,22.28796],[103.894615,22.287578],[103.894718,22.287269],[103.89496,22.287071],[103.895016,22.286934],[103.894888,22.286853],[103.894503,22.286945],[103.894267,22.2869],[103.89391,22.286746],[103.893293,22.286187],[103.892737,22.286132],[103.892777,22.285572],[103.892716,22.285463],[103.892483,22.285335],[103.892223,22.285662],[103.891908,22.285741],[103.89183,22.285877],[103.891944,22.286069],[103.892576,22.286469],[103.892499,22.286678],[103.892117,22.287038],[103.892176,22.287545],[103.891508,22.288035],[103.891329,22.288049],[103.890828,22.287628],[103.890658,22.287295],[103.890485,22.287105],[103.88987,22.286765],[103.889516,22.286481],[103.8895,22.286339],[103.889597,22.28625],[103.890306,22.286715],[103.890667,22.286853],[103.890857,22.286778],[103.890855,22.286648],[103.890182,22.286147],[103.88983,22.285592],[103.889127,22.285106],[103.888873,22.284746],[103.888709,22.284642],[103.887768,22.284689],[103.887392,22.285351],[103.886869,22.285473],[103.886673,22.285304],[103.886679,22.285207],[103.886979,22.284865],[103.887051,22.284661],[103.886976,22.284371],[103.886764,22.284272],[103.886563,22.284391],[103.886335,22.285071],[103.886338,22.285235],[103.886504,22.28554],[103.886842,22.285875],[103.88685,22.285999],[103.886638,22.286103],[103.88652,22.285997],[103.88644,22.285721],[103.886188,22.285408],[103.885922,22.284843],[103.885761,22.284813],[103.885421,22.284939],[103.885278,22.284867],[103.88527,22.284671],[103.885568,22.28411],[103.885616,22.28354],[103.885289,22.282738],[103.88497,22.282544],[103.884879,22.281996],[103.884731,22.281916],[103.884654,22.281939],[103.884458,22.282167],[103.883967,22.282326],[103.883473,22.282294],[103.883331,22.282125],[103.883275,22.281872],[103.883371,22.281614],[103.883353,22.281286],[103.883452,22.280924],[103.883447,22.280539],[103.883712,22.280286],[103.884109,22.280137],[103.884281,22.279988],[103.884804,22.279221],[103.885281,22.279075],[103.885375,22.278953],[103.885364,22.278754],[103.884798,22.278601],[103.884691,22.2784],[103.884973,22.277844],[103.885509,22.277563],[103.885415,22.277084],[103.885823,22.276627],[103.885874,22.276478],[103.885761,22.276364],[103.885093,22.276096],[103.884927,22.275905],[103.884922,22.275711],[103.885144,22.275441],[103.885107,22.275136],[103.885185,22.274719],[103.885466,22.274562],[103.886341,22.274416],[103.887263,22.273967],[103.887448,22.273805],[103.887341,22.272932],[103.887143,22.272765],[103.886724,22.272559],[103.887161,22.271782],[103.887231,22.271025],[103.887236,22.270688],[103.88703,22.269884],[103.886907,22.269059],[103.887003,22.268886],[103.887505,22.268593],[103.887588,22.268488],[103.887678,22.267131],[103.887934,22.266363],[103.887872,22.265826],[103.888019,22.26516],[103.888336,22.265032],[103.888469,22.264708],[103.88884,22.264599],[103.888891,22.264493],[103.888823,22.264086],[103.888959,22.263153],[103.888976,22.262133],[103.889018,22.261816],[103.889223,22.261289],[103.889277,22.260813],[103.889225,22.26044],[103.889351,22.260312],[103.889715,22.260431],[103.889857,22.260336],[103.889483,22.259723],[103.889536,22.259198],[103.889213,22.258977],[103.889058,22.258607],[103.889139,22.258067],[103.890163,22.256432],[103.890506,22.255663],[103.891002,22.255323],[103.891161,22.255141],[103.891155,22.254779],[103.891238,22.254479],[103.891043,22.254071],[103.89104,22.253875],[103.891938,22.252845],[103.892276,22.252282],[103.89277,22.251991],[103.893038,22.251418],[103.89314,22.251318],[103.893215,22.251011]]}},{"type":"Feature","properties":{"k":"road","c":3,"name":""},"geometry":{"type":"LineString","coordinates":[[103.840767,22.334456],[103.840607,22.33399],[103.840959,22.33374],[103.840181,22.332976],[103.839597,22.332616],[103.839088,22.332505],[103.838659,22.332661],[103.838349,22.332884],[103.837438,22.332867],[103.837403,22.332797],[103.83747,22.332636],[103.838424,22.332494],[103.839152,22.332075],[103.842544,22.33153],[103.843097,22.331419],[103.843501,22.331221],[103.844153,22.330825],[103.844491,22.330545],[103.845067,22.329295],[103.845998,22.327576],[103.846271,22.327403],[103.846687,22.327477],[103.846365,22.327653],[103.846244,22.32779],[103.84611,22.328313],[103.845893,22.328623],[103.845597,22.329263],[103.845597,22.329398],[103.845825,22.329835],[103.845748,22.330157],[103.844426,22.331533],[103.843413,22.332847],[103.843165,22.333048],[103.842736,22.333129],[103.842135,22.334077],[103.841016,22.335042],[103.841218,22.335641],[103.841319,22.335795],[103.841985,22.335609],[103.84366,22.336042],[103.845336,22.335928],[103.846871,22.336352],[103.847303,22.336715],[103.848638,22.336884],[103.849914,22.336909],[103.850268,22.337163],[103.852847,22.338158],[103.853101,22.338394],[103.853567,22.339034],[103.854281,22.339298],[103.854446,22.33943],[103.854601,22.34021],[103.855327,22.34118],[103.855611,22.341876],[103.856715,22.342628],[103.857432,22.343564],[103.857499,22.343775],[103.857429,22.343934],[103.857202,22.344059],[103.85645,22.343937],[103.856211,22.34396],[103.855967,22.344264],[103.856006,22.34451],[103.856763,22.344795],[103.856837,22.34502],[103.856599,22.345513],[103.856523,22.345879],[103.856537,22.346823],[103.856292,22.347526],[103.856206,22.348875],[103.856547,22.35002],[103.856708,22.351118],[103.856359,22.35193],[103.855798,22.352318],[103.855737,22.352428],[103.85592,22.353013],[103.855813,22.353584],[103.8559,22.353689],[103.856132,22.353772],[103.85696,22.353977],[103.857113,22.353964],[103.857247,22.353844],[103.857265,22.353471],[103.857367,22.353275],[103.85823,22.353142],[103.858484,22.35305],[103.859202,22.352309],[103.859341,22.352242],[103.859638,22.352235],[103.859831,22.352332],[103.860251,22.353196],[103.861066,22.35408],[103.861034,22.354266],[103.860543,22.354798],[103.860373,22.355331],[103.860405,22.355423],[103.860632,22.355516],[103.861167,22.355175],[103.861549,22.355151],[103.861738,22.355269],[103.862044,22.355621],[103.862775,22.355895],[103.863122,22.356369],[103.863229,22.356796],[103.863152,22.357386],[103.863046,22.357602],[103.862696,22.357822],[103.862647,22.357965],[103.863239,22.358609],[103.86358,22.359094],[103.863693,22.359678],[103.863606,22.360259],[103.863673,22.360425],[103.864053,22.36089],[103.863842,22.361005],[103.863679,22.361018],[103.863173,22.360917],[103.862476,22.360888],[103.862048,22.360704],[103.861533,22.360596],[103.861375,22.360596],[103.86124,22.360676],[103.861117,22.360974],[103.861197,22.361538],[103.861147,22.36201],[103.861243,22.362486],[103.861228,22.363307],[103.86105,22.363962],[103.860839,22.364435],[103.860864,22.364899],[103.860555,22.365315],[103.860392,22.365806],[103.86022,22.365951],[103.859476,22.366138],[103.8589,22.366105],[103.858628,22.366158],[103.857465,22.366608],[103.85697,22.366914],[103.855524,22.371182],[103.855565,22.371599],[103.856205,22.372874],[103.856181,22.373283],[103.856021,22.373476],[103.854489,22.374428],[103.853492,22.375218],[103.852724,22.376696],[103.852731,22.37708],[103.852265,22.377135],[103.85166,22.377917],[103.850814,22.37951],[103.850971,22.380286],[103.851154,22.380592],[103.851209,22.380838],[103.850972,22.381282],[103.849761,22.382539],[103.849825,22.383593],[103.849807,22.383836],[103.849665,22.384139],[103.84921,22.384184],[103.84892,22.384437],[103.8488,22.384664],[103.848759,22.384859],[103.848808,22.385803],[103.849311,22.386689],[103.849015,22.386974],[103.848918,22.387165],[103.848883,22.387663],[103.848186,22.38812],[103.847803,22.388943],[103.847191,22.389649],[103.846641,22.390412],[103.846435,22.39094],[103.846276,22.391002],[103.845952,22.391002],[103.84552,22.391418],[103.845067,22.392326],[103.844807,22.393139],[103.844044,22.394068],[103.843542,22.394281],[103.843251,22.395112],[103.843054,22.395319]]}},{"type":"Feature","properties":{"k":"trek","c":0,"name":""},"geometry":{"type":"LineString","coordinates":[[103.834784,22.328582],[103.83508,22.328223],[103.835049,22.327968],[103.834863,22.327628],[103.835123,22.32712],[103.835088,22.327012],[103.834798,22.326799],[103.834869,22.326568],[103.834811,22.326341],[103.834868,22.326123],[103.834933,22.32601],[103.835084,22.326031],[103.835167,22.325946],[103.835332,22.325968],[103.835564,22.325873],[103.835931,22.325359],[103.836129,22.325259],[103.836192,22.324934],[103.836422,22.32491],[103.837009,22.325145],[103.837095,22.325372],[103.837284,22.325491],[103.837345,22.325644],[103.837503,22.325728],[103.837573,22.325981],[103.837728,22.326046],[103.837797,22.326295],[103.838192,22.326217],[103.839126,22.325688],[103.839713,22.325609],[103.840132,22.325078],[103.840461,22.324877],[103.840904,22.324999],[103.841451,22.324471],[103.84182,22.324327],[103.841933,22.32413],[103.842596,22.323652],[103.842816,22.323687],[103.843003,22.323825],[103.843428,22.323799],[103.843791,22.323607],[103.844321,22.323515],[103.845132,22.323094],[103.845322,22.323062],[103.845356,22.322806],[103.845511,22.322541],[103.845423,22.321325],[103.845551,22.321148],[103.846006,22.320917],[103.846316,22.320881],[103.84666,22.321297],[103.847116,22.321222],[103.847521,22.321287],[103.847778,22.321463],[103.848253,22.3215],[103.848663,22.32172],[103.84879,22.321582],[103.848841,22.321202],[103.849018,22.320835],[103.849289,22.320798],[103.84949,22.320647],[103.849975,22.320575],[103.85015,22.320423],[103.85008,22.320036],[103.850128,22.319773],[103.850485,22.319465],[103.850268,22.31914],[103.850463,22.318681],[103.850681,22.318535],[103.85063,22.318364],[103.850801,22.317947],[103.85093,22.318178],[103.851389,22.318513],[103.851546,22.318382],[103.851992,22.318509],[103.852117,22.318477],[103.852442,22.318184],[103.852655,22.318292],[103.852814,22.318565],[103.852943,22.318526],[103.853154,22.318329],[103.853489,22.318456],[103.853565,22.318407],[103.853583,22.318235],[103.853685,22.318237],[103.853811,22.317944],[103.85417,22.317753],[103.854508,22.317882],[103.854841,22.317823],[103.855136,22.318006],[103.855207,22.317702],[103.855164,22.317583],[103.855227,22.317475],[103.85545,22.317384],[103.855648,22.317093],[103.855468,22.31687],[103.855468,22.316776],[103.855549,22.316694],[103.855594,22.316369],[103.855691,22.316354],[103.855876,22.316175],[103.855801,22.31582],[103.855825,22.315371],[103.855903,22.315246],[103.856104,22.315612],[103.856227,22.315691],[103.856874,22.315798],[103.857216,22.315062],[103.857493,22.314725],[103.857439,22.314494],[103.857244,22.314224],[103.857259,22.314138],[103.857759,22.31327],[103.858132,22.313049],[103.858474,22.312545],[103.858947,22.312375],[103.859744,22.311813],[103.860176,22.311592],[103.860444,22.311582],[103.860629,22.311659],[103.860909,22.311632],[103.861243,22.311488],[103.8616,22.311205],[103.861865,22.311155],[103.862128,22.310954],[103.862402,22.310927],[103.862625,22.310811],[103.862853,22.310513],[103.863174,22.31049],[103.863325,22.310552],[103.863832,22.310425],[103.864896,22.309667],[103.864765,22.309959],[103.865207,22.309669],[103.865395,22.309433],[103.865417,22.309662],[103.865544,22.309606],[103.866656,22.31025],[103.866932,22.310481],[103.867418,22.310319],[103.868646,22.310165],[103.86894,22.31004],[103.869385,22.309721],[103.869569,22.309695],[103.869813,22.309729],[103.870355,22.309949],[103.871621,22.31018],[103.872176,22.31015],[103.872565,22.310267],[103.873675,22.310332],[103.873965,22.310605],[103.874088,22.310647],[103.875698,22.310654],[103.875909,22.310498],[103.876036,22.3102],[103.875707,22.309739],[103.876239,22.309387],[103.876698,22.309252],[103.876817,22.309014],[103.876842,22.308766],[103.876599,22.307498],[103.876762,22.30698],[103.878505,22.306575],[103.878581,22.306443],[103.878664,22.305721],[103.878894,22.305277],[103.879505,22.304972],[103.880251,22.305178],[103.880401,22.30518],[103.880704,22.305015],[103.881066,22.304988],[103.881584,22.305],[103.882007,22.305088],[103.882096,22.305015],[103.882477,22.304202],[103.882454,22.303586],[103.882599,22.303472],[103.883735,22.303525],[103.883914,22.30381],[103.884041,22.303901],[103.88429,22.303907],[103.884609,22.303754],[103.884981,22.303988],[103.886017,22.303606],[103.886848,22.303495],[103.88734,22.303185],[103.887326,22.302938],[103.887974,22.302761],[103.888594,22.302486],[103.889913,22.302814],[103.889978,22.302932],[103.89016,22.303651],[103.890488,22.30439],[103.89086,22.304945],[103.89078,22.305073],[103.890518,22.305161],[103.890128,22.305431],[103.890208,22.305795],[103.890671,22.305717],[103.891533,22.305746],[103.892091,22.305542],[103.892437,22.305581],[103.892917,22.305537],[103.894295,22.305893],[103.894294,22.306053],[103.894154,22.306227],[103.894633,22.306283],[103.894914,22.306469],[103.895209,22.306423],[103.895555,22.306128],[103.895834,22.305407],[103.89597,22.30535],[103.8964,22.305354],[103.896601,22.305025],[103.896734,22.304917],[103.897213,22.304898],[103.897488,22.304556],[103.898113,22.304392],[103.898472,22.303883],[103.898577,22.30387],[103.898885,22.304055],[103.899105,22.304072],[103.899642,22.303833],[103.900409,22.303651],[103.900503,22.303484],[103.900626,22.302808],[103.900759,22.302655],[103.901105,22.302468],[103.901692,22.301878],[103.902433,22.301745],[103.902952,22.301359],[103.903013,22.3011],[103.902894,22.30034],[103.90316,22.299886],[103.902894,22.298672],[103.902919,22.298532],[103.903155,22.298239],[103.902795,22.297573],[103.902646,22.29741],[103.902386,22.297388],[103.902136,22.297734],[103.902386,22.297388],[103.902646,22.29741],[103.902795,22.297573],[103.903155,22.298239],[103.903626,22.298134],[103.903943,22.29789],[103.904439,22.296969],[103.904437,22.296085],[103.904855,22.295118],[103.905,22.295317],[103.905491,22.295476],[103.905845,22.295744],[103.906156,22.296141],[103.906456,22.29626],[103.906628,22.296458],[103.906907,22.296548],[103.907068,22.296925],[103.907003,22.297133],[103.907229,22.297173],[103.907647,22.297372],[103.907937,22.297292],[103.907851,22.29759],[103.908087,22.297699],[103.908084,22.297957],[103.908184,22.298235],[103.908656,22.298732],[103.908653,22.29894],[103.908724,22.299014],[103.908878,22.299102],[103.909298,22.299176],[103.909211,22.299404],[103.909324,22.299471],[103.909691,22.299513],[103.910078,22.299391],[103.910799,22.299451],[103.911494,22.299118],[103.911763,22.299233],[103.911867,22.299441],[103.912003,22.299481],[103.912209,22.299485],[103.913058,22.299249],[103.913507,22.2993],[103.913875,22.299758],[103.91399,22.299737],[103.914207,22.299511],[103.914374,22.299497],[103.915331,22.299685],[103.916564,22.29979],[103.917681,22.299079],[103.918208,22.298874],[103.91839,22.298609],[103.918962,22.298204],[103.919868,22.297323],[103.920264,22.296588],[103.920409,22.29645],[103.920987,22.296052],[103.92179,22.295759],[103.922015,22.295233],[103.922644,22.294394],[103.923305,22.293736],[103.923766,22.293069],[103.924447,22.293259],[103.924868,22.293059],[103.925246,22.293034],[103.925808,22.292761],[103.926082,22.292539],[103.926304,22.292572],[103.926787,22.292078],[103.926807,22.291754],[103.926921,22.29162],[103.92818,22.291065],[103.92874,22.290624],[103.929192,22.29044],[103.929603,22.29012],[103.930832,22.289764],[103.930962,22.28942],[103.931165,22.288405],[103.931802,22.28803],[103.932052,22.287691],[103.932292,22.287575],[103.932435,22.287159],[103.932509,22.287094],[103.932917,22.287078],[103.933672,22.286694],[103.933723,22.286561],[103.93366,22.286467],[103.933509,22.286468],[103.93323,22.286595],[103.933118,22.286462],[103.933307,22.286375],[103.933765,22.285931],[103.934058,22.285487],[103.934237,22.285431],[103.93513,22.285423],[103.93533,22.285345],[103.935554,22.285111],[103.935705,22.284694],[103.936439,22.284356],[103.936847,22.284034],[103.937101,22.28378],[103.937299,22.28327],[103.937789,22.282928],[103.93811,22.282861],[103.93864,22.282886],[103.939143,22.282824],[103.939814,22.282891],[103.940236,22.282626],[103.940532,22.282245],[103.941215,22.281799],[103.941749,22.280922],[103.942042,22.280079],[103.942379,22.278802],[103.942975,22.278035],[103.942463,22.277399],[103.942093,22.277084],[103.942035,22.276932],[103.942089,22.276568],[103.942218,22.276434],[103.942672,22.276304],[103.943317,22.276756],[103.943541,22.276775],[103.943725,22.276671],[103.943737,22.276376],[103.943477,22.275977],[103.943579,22.275543],[103.944005,22.275165],[103.944376,22.274706],[103.945047,22.274395],[103.945617,22.274396],[103.945819,22.274274],[103.94607,22.273698],[103.946092,22.273512],[103.945783,22.272751],[103.945782,22.272595],[103.946422,22.27186],[103.946674,22.271782],[103.947035,22.271931],[103.947158,22.272123],[103.946964,22.272634],[103.94706,22.272807],[103.94782,22.273113],[103.94824,22.273548],[103.948791,22.273948],[103.949548,22.274091],[103.950105,22.274545],[103.950875,22.274656],[103.952027,22.274645],[103.951733,22.274431],[103.95214,22.273765],[103.952326,22.273623],[103.952901,22.273373],[103.953349,22.273263],[103.953911,22.272953],[103.954319,22.272633],[103.954839,22.272611],[103.955129,22.272184],[103.956002,22.271555],[103.956134,22.271179],[103.956895,22.270821],[103.957418,22.270477],[103.95768,22.269724],[103.95764,22.269616],[103.958061,22.269439],[103.958135,22.269328],[103.959081,22.26979],[103.959533,22.270537],[103.959409,22.269978],[103.959538,22.269866],[103.959698,22.269895],[103.959764,22.269966],[103.959879,22.270457],[103.960484,22.270651],[103.960704,22.270977],[103.960877,22.271083],[103.960874,22.27076],[103.960176,22.269599],[103.960079,22.26912],[103.959678,22.268866],[103.959496,22.268617],[103.959602,22.268459],[103.959874,22.268295],[103.960469,22.268201],[103.960611,22.268115],[103.960533,22.267727],[103.960686,22.267637],[103.960716,22.267858],[103.960908,22.26811],[103.960936,22.268394],[103.961046,22.268558],[103.961807,22.268958],[103.962324,22.26885],[103.962354,22.268774],[103.962277,22.26858],[103.962073,22.268439],[103.961869,22.268178],[103.961834,22.267828],[103.962448,22.267404],[103.962486,22.267104],[103.96239,22.266798],[103.962231,22.26659],[103.962091,22.266095],[103.961736,22.265888],[103.961791,22.265793],[103.962094,22.265777],[103.962177,22.265694],[103.962202,22.265493],[103.962077,22.265307],[103.962166,22.265189],[103.962524,22.265183],[103.962687,22.265411],[103.962965,22.265507],[103.963162,22.265788],[103.96415,22.266252],[103.964351,22.266441],[103.965114,22.266152],[103.965126,22.26587],[103.965378,22.265455],[103.96572,22.265153],[103.965931,22.265052],[103.965897,22.263728],[103.96704,22.263699],[103.967249,22.263604],[103.967581,22.263805],[103.968059,22.263785]]}},{"type":"Feature","properties":{"k":"rail","c":0,"name":""},"geometry":{"type":"LineString","coordinates":[[103.840374,22.334256],[103.840235,22.333983],[103.839921,22.333794],[103.838141,22.333126],[103.837318,22.33305],[103.836363,22.333114],[103.834609,22.333541],[103.833313,22.334136],[103.832594,22.334352],[103.831747,22.334506],[103.830457,22.335024],[103.829201,22.335317],[103.825,22.33662]]}},{"type":"Feature","properties":{"k":"cable","c":0,"name":""},"geometry":{"type":"LineString","coordinates":[[103.824322,22.337076],[103.808817,22.327592],[103.774778,22.306611]]}},{"type":"Feature","properties":{"k":"flight"},"geometry":{"type":"LineString","coordinates":[[103.8766636,22.3219262],[103.87667488536763,22.321620052426358],[103.87673222560825,22.32131054676387],[103.87681966697956,22.320998846278894],[103.87692190442152,22.32068606693914],[103.87702290798366,22.32037337756767],[103.87710683096054,22.32006193362625],[103.87715926654487,22.31975278558654],[103.87716849992691,22.31944678763333],[103.87712657643303,22.319144519781258],[103.87703006462559,22.318846232233433],[103.87688043411104,22.318551817833576],[103.87668400735781,22.318260815579205],[103.8764514849827,22.317972445235366],[103.87619708294804,22.317685670245847],[103.87593735515986,22.317399283583384],[103.87568980325727,22.317112009116812],[103.87547139456832,22.316822609674226],[103.87529711764348,22.31652999236619],[103.87517870175147,22.316233301953638],[103.87512361251625,22.31593199408096],[103.87513441175147,22.315625881953636],[103.87520853764349,22.315315152366185],[103.87533852456832,22.31500034967423],[103.87551264325727,22.314682329116813],[103.87571590515985,22.314362183583384],[103.87593134294805,22.314041150245846],[103.8761414549827,22.313720505235363],[103.87632968735781,22.313401455579207],[103.87648182411104,22.313085037833577],[103.87658716462558,22.312772032233433],[103.87663938643301,22.312462899781256],[103.87663701992692,22.312157747633325],[103.87658349654487,22.311856325586543],[103.87648677096054,22.31155805362625],[103.87635855798365,22.31126207756767],[103.87621326442151,22.310967346939137],[103.87606673697954,22.31067270627889],[103.87593500560826,22.31037698676387],[103.87583337536763,22.31007907242636],[103.8757778,22.3097778]]}},{"type":"Feature","properties":{"k":"trek","c":0,"name":"trek2"},"geometry":{"type":"LineString","coordinates":[[103.877555,22.323811],[103.877627,22.323793],[103.877661,22.323799],[103.87769,22.323819],[103.877731,22.323868],[103.877765,22.323963],[103.877799,22.324031],[103.87791,22.324137],[103.877945,22.32419],[103.878055,22.324173],[103.878087,22.324157],[103.878184,22.324085],[103.878275,22.324036],[103.878433,22.324002],[103.878479,22.323991],[103.878519,22.323959],[103.878541,22.323907],[103.878543,22.323815],[103.878519,22.323733],[103.878483,22.323645],[103.878486,22.323598],[103.878551,22.323502],[103.878704,22.323353],[103.87879,22.323227],[103.879048,22.322994],[103.879152,22.322919],[103.879273,22.32286],[103.879241,22.322794],[103.879227,22.322743],[103.879233,22.322624],[103.879251,22.322607],[103.879337,22.322527],[103.879423,22.322448],[103.879509,22.322368],[103.879595,22.322289],[103.879681,22.32221],[103.879766,22.32213],[103.879852,22.322051],[103.879938,22.321971],[103.880024,22.321892],[103.88011,22.321813],[103.880196,22.321733],[103.880281,22.321654],[103.880367,22.321574],[103.880453,22.321495],[103.880539,22.321416],[103.880625,22.321336],[103.880711,22.321257],[103.880796,22.321177],[103.880882,22.321098],[103.880968,22.321019],[103.881054,22.320939],[103.88114,22.32086],[103.881226,22.32078],[103.881311,22.320701],[103.881397,22.320622],[103.881483,22.320542],[103.881569,22.320463],[103.881655,22.320383],[103.881741,22.320304],[103.881826,22.320225],[103.881912,22.320145],[103.881998,22.320066],[103.882084,22.319986],[103.88217,22.319907],[103.882256,22.319828],[103.882341,22.319748],[103.882427,22.319669],[103.882513,22.319589],[103.882599,22.31951],[103.882685,22.319431],[103.882771,22.319351],[103.882856,22.319272],[103.882942,22.319192],[103.883028,22.319113],[103.883114,22.319034],[103.8832,22.318954],[103.883286,22.318875],[103.883371,22.318795],[103.883457,22.318716],[103.883543,22.318637],[103.883629,22.318557],[103.883715,22.318478],[103.883801,22.318398],[103.883886,22.318319],[103.883972,22.31824],[103.884058,22.31816],[103.884144,22.318081],[103.88423,22.318001],[103.884315,22.317922],[103.884401,22.317843],[103.884487,22.317763],[103.884573,22.317684],[103.884659,22.317604],[103.884745,22.317525],[103.88483,22.317446],[103.884916,22.317366],[103.885002,22.317287],[103.885088,22.317207],[103.885174,22.317128],[103.88526,22.317049],[103.885345,22.316969],[103.885431,22.31689],[103.885517,22.31681],[103.885603,22.316731],[103.885689,22.316652],[103.885775,22.316572],[103.88586,22.316493],[103.885946,22.316413],[103.886032,22.316334],[103.886118,22.316255],[103.886204,22.316175],[103.88629,22.316096],[103.886375,22.316016],[103.886461,22.315937],[103.886546,22.315858],[103.886622,22.315778],[103.886679,22.315699],[103.886708,22.315619],[103.886717,22.31554],[103.88672,22.315461],[103.886729,22.315381],[103.886759,22.315302],[103.886814,22.315222],[103.886881,22.315143],[103.886937,22.315064],[103.886975,22.314984],[103.887004,22.314905],[103.887033,22.314825],[103.887053,22.314746],[103.887061,22.314667],[103.887062,22.314587],[103.887062,22.314508],[103.887062,22.314428],[103.887062,22.314349],[103.887062,22.31427],[103.887062,22.31419],[103.887062,22.314111],[103.887062,22.314031],[103.887062,22.313952],[103.887062,22.313873],[103.887062,22.313793],[103.887062,22.313714],[103.887062,22.313634],[103.887062,22.313555],[103.887062,22.313475],[103.887062,22.313396],[103.887062,22.313317],[103.887062,22.313237],[103.887062,22.313158],[103.887062,22.313078],[103.887062,22.312999],[103.887062,22.31292],[103.887062,22.31284],[103.887062,22.312761],[103.887062,22.312681],[103.887062,22.312602],[103.887062,22.312523],[103.887062,22.312443],[103.887062,22.312364],[103.887062,22.312284],[103.887062,22.312205],[103.887062,22.312126],[103.887062,22.312046],[103.887062,22.311967],[103.887062,22.311887],[103.887062,22.311808],[103.887062,22.311729],[103.887062,22.311649],[103.887062,22.31157],[103.887062,22.31149],[103.887062,22.311411],[103.887062,22.311332],[103.887062,22.311252],[103.887062,22.311173],[103.887062,22.311093],[103.887062,22.311014],[103.887062,22.310935],[103.887062,22.310855],[103.887062,22.310776],[103.887062,22.310696],[103.887062,22.310617],[103.887062,22.310538],[103.887062,22.310458],[103.887062,22.310379],[103.887062,22.310299],[103.887062,22.31022],[103.887062,22.31014],[103.887062,22.310061],[103.887062,22.309982],[103.887062,22.309902],[103.887062,22.309823],[103.887062,22.309743],[103.887062,22.309664],[103.887062,22.309585],[103.887062,22.309505],[103.887062,22.309426],[103.887062,22.309346],[103.887062,22.309267],[103.887062,22.309188],[103.887062,22.309108],[103.887062,22.309029],[103.887062,22.308949],[103.887062,22.30887],[103.887062,22.308791],[103.887062,22.308711],[103.887062,22.308632],[103.887062,22.308552],[103.887062,22.308473],[103.887062,22.308394],[103.887062,22.308314],[103.887062,22.308235],[103.887062,22.308155],[103.887062,22.308076],[103.887062,22.307997],[103.887063,22.307917],[103.887073,22.307838],[103.887102,22.307758],[103.887159,22.307679],[103.887235,22.307599],[103.887318,22.30752],[103.887395,22.307441],[103.887451,22.307361],[103.88748,22.307282],[103.88749,22.307202],[103.887491,22.307123],[103.887491,22.307044],[103.887491,22.306964],[103.887491,22.306885],[103.887491,22.306805],[103.887491,22.306726],[103.887491,22.306647],[103.887491,22.306567],[103.887491,22.306488],[103.887491,22.306408],[103.887491,22.306329],[103.887491,22.30625],[103.887491,22.30617],[103.887491,22.306091],[103.887491,22.306011],[103.887491,22.305932],[103.887491,22.305853],[103.887491,22.305773],[103.887491,22.305694],[103.887491,22.305614],[103.887491,22.305535],[103.887491,22.305455],[103.887491,22.305376],[103.887491,22.305297],[103.887491,22.305217],[103.887491,22.305138],[103.887491,22.305058],[103.887491,22.304979],[103.887491,22.3049],[103.887491,22.30482],[103.887491,22.304741],[103.887491,22.304661],[103.887491,22.304582],[103.887491,22.304503]]}}]}